{
  "type": "FeatureCollection",
  "note": "Invented geometry, not a real venue. A 1 km square over the centre of BARCELONA, tiled by four rectangular zones in two sectors under one district (R-70). Zone borders are exact: neighbours share the same nodes, so there is no sliver between them for a player to stand in and be visible to nobody (§4). Edit this file to describe your own ground — nothing geographic lives in code (§11). One file feeds both the renderer and server-side geometry (R-51); every feature carries featureType.",
  "features": [
    {
      "type": "Feature",
      "properties": {
        "featureType": "PERIMETER",
        "name": "Perimetro",
        "note": "Invented, and square on purpose: the four zones below tile it exactly, sharing vertices to the digit. See README, \"Your own geometry\"."
      },
      "geometry": {
        "type": "Polygon",
        "coordinates": [
          [
            [
              2.1626133,
              41.3829008
            ],
            [
              2.1745867,
              41.3829008
            ],
            [
              2.1745867,
              41.3918992
            ],
            [
              2.1626133,
              41.3918992
            ],
            [
              2.1626133,
              41.3829008
            ]
          ]
        ]
      }
    },
    {
      "type": "Feature",
      "properties": {
        "featureType": "INGEST_AREA",
        "name": "Area de ingesta",
        "note": "Perimeter plus 500 m (R-04). Players drift outside the perimeter and their pings must still be accepted while IN_PROGRESS; this is also the extent `pmtiles extract` is given (§14.2)."
      },
      "geometry": {
        "type": "Polygon",
        "coordinates": [
          [
            [
              2.1566266,
              41.3784017
            ],
            [
              2.1805734,
              41.3784017
            ],
            [
              2.1805734,
              41.3963983
            ],
            [
              2.1566266,
              41.3963983
            ],
            [
              2.1566266,
              41.3784017
            ]
          ]
        ]
      }
    },
    {
      "type": "Feature",
      "properties": {
        "featureType": "ZONE",
        "id": "zone-norte-oeste",
        "name": "NORTE OESTE",
        "sector": "s-norte",
        "sectorName": "NORTE",
        "district": "d-barcelona",
        "districtName": "BARCELONA"
      },
      "geometry": {
        "type": "Polygon",
        "coordinates": [
          [
            [
              2.1626133,
              41.3874
            ],
            [
              2.1686,
              41.3874
            ],
            [
              2.1686,
              41.3918992
            ],
            [
              2.1626133,
              41.3918992
            ],
            [
              2.1626133,
              41.3874
            ]
          ]
        ]
      }
    },
    {
      "type": "Feature",
      "properties": {
        "featureType": "ZONE",
        "id": "zone-norte-este",
        "name": "NORTE ESTE",
        "sector": "s-norte",
        "sectorName": "NORTE",
        "district": "d-barcelona",
        "districtName": "BARCELONA"
      },
      "geometry": {
        "type": "Polygon",
        "coordinates": [
          [
            [
              2.1686,
              41.3874
            ],
            [
              2.1745867,
              41.3874
            ],
            [
              2.1745867,
              41.3918992
            ],
            [
              2.1686,
              41.3918992
            ],
            [
              2.1686,
              41.3874
            ]
          ]
        ]
      }
    },
    {
      "type": "Feature",
      "properties": {
        "featureType": "ZONE",
        "id": "zone-sur-oeste",
        "name": "SUR OESTE",
        "sector": "s-sur",
        "sectorName": "SUR",
        "district": "d-barcelona",
        "districtName": "BARCELONA"
      },
      "geometry": {
        "type": "Polygon",
        "coordinates": [
          [
            [
              2.1626133,
              41.3829008
            ],
            [
              2.1686,
              41.3829008
            ],
            [
              2.1686,
              41.3874
            ],
            [
              2.1626133,
              41.3874
            ],
            [
              2.1626133,
              41.3829008
            ]
          ]
        ]
      }
    },
    {
      "type": "Feature",
      "properties": {
        "featureType": "ZONE",
        "id": "zone-sur-este",
        "name": "SUR ESTE",
        "sector": "s-sur",
        "sectorName": "SUR",
        "district": "d-barcelona",
        "districtName": "BARCELONA"
      },
      "geometry": {
        "type": "Polygon",
        "coordinates": [
          [
            [
              2.1686,
              41.3829008
            ],
            [
              2.1745867,
              41.3829008
            ],
            [
              2.1745867,
              41.3874
            ],
            [
              2.1686,
              41.3874
            ],
            [
              2.1686,
              41.3829008
            ]
          ]
        ]
      }
    },
    {
      "type": "Feature",
      "properties": {
        "featureType": "POI",
        "id": "poi-objetivo",
        "name": "OBJETIVO",
        "category": "OBJECTIVE"
      },
      "geometry": {
        "type": "Point",
        "coordinates": [
          2.1656066,
          41.3896496
        ]
      }
    },
    {
      "type": "Feature",
      "properties": {
        "featureType": "POI",
        "id": "poi-deposito",
        "name": "DEPOSITO",
        "category": "OTHER"
      },
      "geometry": {
        "type": "Point",
        "coordinates": [
          2.1718927,
          41.3900995
        ]
      }
    },
    {
      "type": "Feature",
      "properties": {
        "featureType": "POI",
        "id": "poi-foco",
        "name": "FOCO",
        "category": "HAZARD"
      },
      "geometry": {
        "type": "Point",
        "coordinates": [
          2.1653073,
          41.3849254
        ]
      }
    },
    {
      "type": "Feature",
      "properties": {
        "featureType": "POI",
        "id": "poi-reunion",
        "name": "PUNTO DE REUNION",
        "category": "MEETING_POINT"
      },
      "geometry": {
        "type": "Point",
        "coordinates": [
          2.1715934,
          41.3847005
        ]
      }
    },
    {
      "type": "Feature",
      "properties": {
        "featureType": "POI",
        "id": "poi-acceso-norte",
        "name": "ACCESO NORTE",
        "category": "ENTRANCE",
        "entranceTo": "zone-norte-este",
        "note": "Opens into zone-norte-este, and stands on the border it shares with zone-norte-oeste."
      },
      "geometry": {
        "type": "Point",
        "coordinates": [
          2.1686,
          41.3896496
        ]
      }
    }
  ]
}
